NORAD_CAT_ID,OBJECT_NAME,OBJECT_TYPE,EPOCH,MEAN_MOTION,ECCENTRICITY,INCLINATION,RA_OF_ASC_NODE,ARG_OF_PERICENTER,MEAN_ANOMALY,BSTAR,MEAN_MOTION_DOT,MEAN_MOTION_DDOT,TLE_LINE0,TLE_LINE1,TLE_LINE2,SEMIMAJOR_AXIS,PERIOD,APOGEE,PERIGEE,DECAYED
51136.0,STARLINK-3253,PAYLOAD,2023-01-07 15:31:35,15.08830867,0.00027,53.217,93.3,30.4572,329.6576,0.00013806,1.909e-05,0.0,0 STARLINK-3253,1 51136U 22005AJ  23007.64694109  .00001909  00000-0  13806-3 0  9996,2 51136  53.2170  93.3000 0002700  30.4572 329.6576 15.08830867 54059,6917.908,95.438,541.641,537.905,0.0
51136.0,STARLINK-3253,PAYLOAD,2023-01-08 12:11:37,15.08835771,0.0002742,53.2171,89.4357,30.2395,329.8755,0.00043635,6.662e-05,0.0,0 STARLINK-3253,1 51136U 22005AJ  23008.50807037  .00006662  00000-0  43635-3 0  9992,2 51136  53.2171  89.4357 0002742  30.2395 329.8755 15.08835771 55318,6917.893,95.438,541.655,537.861,0.0
51136.0,STARLINK-3253,PAYLOAD,2023-01-08 13:47:00,15.08837313,0.0002775,53.2168,89.1381,30.2948,329.8204,0.00048083,7.372e-05,0.0,0 STARLINK-3253,1 51136U 22005AJ  23008.57431056  .00007372  00000-0  48083-3 0  9994,2 51136  53.2168  89.1381 0002775  30.2948 329.8204 15.08837313 54196,6917.889,95.438,541.673,537.8340000000002,0.0
51136.0,STARLINK-3253,PAYLOAD,2023-01-08 21:43:56,15.08839543,0.0002804,53.2171,87.65100000000002,28.7755,331.3392,0.00033887,5.109e-05,0.0,0 STARLINK-3253,1 51136U 22005AJ  23008.90551160  .00005109  00000-0  33887-3 0  9992,2 51136  53.2171  87.6510 0002804  28.7755 331.3392 15.08839543 54247,6917.882,95.438,541.687,537.807,0.0
51136.0,STARLINK-3253,PAYLOAD,2023-01-09 12:02:24,15.08844903,0.0002687,53.2161,84.9745,24.6782,335.4338,0.00028907,4.316e-05,0.0,0 STARLINK-3253,1 51136U 22005AJ  23009.50166778  .00004316  00000-0  28907-3 0  9992,2 51136  53.2161  84.9745 0002687  24.6782 335.4338 15.08844903 54331,6917.865,95.437,541.589,537.872,0.0
51136.0,STARLINK-3253,PAYLOAD,2023-01-09 15:13:10,15.08846535,0.0002702,53.2162,84.3795,25.6587,334.4538,0.00028165,4.198e-05,0.0,0 STARLINK-3253,1 51136U 22005AJ  23009.63414631  .00004198  00000-0  28165-3 0  9994,2 51136  53.2162  84.3795 0002702  25.6587 334.4538 15.08846535 55484,6917.86,95.437,541.595,537.856,0.0
51136.0,STARLINK-3253,PAYLOAD,2023-01-09 21:34:42,15.08856016,0.0002685,53.2168,83.1901,28.3609,331.7529,0.00044985,6.882e-05,0.0,0 STARLINK-3253,1 51136U 22005AJ  23009.89910242  .00006882  00000-0  44985-3 0  9991,2 51136  53.2168  83.1901 0002685  28.3609 331.7529 15.08856016 54395,6917.831,95.437,541.554,537.839,0.0
51136.0,STARLINK-3253,PAYLOAD,2023-01-10 13:28:33,15.08844429,0.0002668,53.2158,80.2166,24.3704,335.7414,4.7772e-05,4.72e-06,0.0,0 STARLINK-3253,1 51136U 22005AJ  23010.56150313  .00000472  00000-0  47772-4 0  9999,2 51136  53.2158  80.2166 0002668  24.3704 335.7414 15.08844429 55627,6917.866999999998,95.437,541.578,537.886,0.0
51136.0,STARLINK-3253,PAYLOAD,2023-01-11 11:43:57,15.08852283,0.0002733,53.2165,76.0534,24.5014,335.6107,0.00017545,2.506e-05,0.0,0 STARLINK-3253,1 51136U 22005AJ  23011.48885742  .00002506  00000-0  17545-3 0  9996,2 51136  53.2165  76.0534 0002733  24.5014 335.6107 15.08852283 54631,6917.843000000002,95.437,541.5980000000002,537.817,0.0
51136.0,STARLINK-3253,PAYLOAD,2023-01-11 21:16:16,15.08848909,0.0002771,53.2162,74.2696,23.1909,336.9207,9.702e-05,1.256e-05,0.0,0 STARLINK-3253,1 51136U 22005AJ  23011.88629669  .00001256  00000-0  97020-4 0  9992,2 51136  53.2162  74.2696 0002771  23.1909 336.9207 15.08848909 54698,6917.853,95.437,541.635,537.8009999999998,0.0
51136.0,STARLINK-3253,PAYLOAD,2023-01-12 03:37:48,15.08859506,0.0002811,53.2159,73.0783,23.8771,336.2351,0.00028051,4.181e-05,0.0,0 STARLINK-3253,1 51136U 22005AJ  23012.15125081  .00004181  00000-0  28051-3 0  9999,2 51136  53.2159  73.0783 0002811  23.8771 336.2351 15.08859506 55865,6917.821,95.436,541.63,537.741,0.0
51136.0,STARLINK-3253,PAYLOAD,2023-01-12 13:10:05,15.08884174,0.0002843,53.216,71.2955,24.031,336.0814,0.00086843,0.00013577,0.0,0 STARLINK-3253,1 51136U 22005AJ  23012.54867879  .00013577  00000-0  86843-3 0  9992,2 51136  53.2160  71.2955 0002843  24.0310 336.0814 15.08884174 55923,6917.745,95.435,541.577,537.644,0.0
51136.0,STARLINK-3253,PAYLOAD,2023-01-12 21:07:02,15.08835479,0.0003748,53.2163,69.8094,48.2007,311.9305,-0.00040718,-6.764e-05,0.0,0 STARLINK-3253,1 51136U 22005AJ  23012.87989445 -.00006764  00000-0 -40718-3 0  9995,2 51136  53.2163  69.8094 0003748  48.2007 311.9305 15.08835479 55975,6917.894,95.438,542.352,537.1659999999998,0.0
51136.0,STARLINK-3253,PAYLOAD,2023-01-13 11:25:32,15.08817884,0.0002473,53.2162,67.1304,33.548,326.5668,-0.00040293,-6.692e-05,0.0,0 STARLINK-3253,1 51136U 22005AJ  23013.47606568 -.00006692  00000-0 -40293-3 0  9992,2 51136  53.2162  67.1304 0002473  33.5480 326.5668 15.08817884 56060,6917.948,95.439,541.524,538.102,0.0
51136.0,STARLINK-3253,PAYLOAD,2023-01-13 20:57:51,15.08815587,0.0002387,53.2167,65.3449,36.5837,323.5318,-0.00024758,-4.224e-05,0.0,0 STARLINK-3253,1 51136U 22005AJ  23013.87351367 -.00004224  00000-0 -24758-3 0  9997,2 51136  53.2167  65.3449 0002387  36.5837 323.5318 15.08815587 54995,6917.955,95.439,541.471,538.169,0.0
51136.0,STARLINK-3253,PAYLOAD,2023-01-14 12:51:43,15.08850944,0.0002401999999999,53.216,62.3722,39.2027,320.9138,0.0016304,0.00025763,0.0,0 STARLINK-3253,1 51136U 22005AJ  23014.53591632  .00025763  00000-0  16304-2 0  9998,2 51136  53.2160  62.3722 0002402  39.2027 320.9138 15.08850944 56223,6917.847,95.437,541.374,538.05,0.0
51136.0,STARLINK-3253,PAYLOAD,2023-01-15 03:10:12,15.08835169,0.0001721999999999,53.2162,59.6962,23.4788,336.6282,0.0013095999999999,0.00020613,0.0,0 STARLINK-3253,1 51136U 22005AJ  23015.13208440  .00020613  00000-0  13096-2 0  9991,2 51136  53.2162  59.6962 0001722  23.4788 336.6282 15.08835169 56319,6917.895,95.438,540.951,538.569,0.0
51136.0,STARLINK-3253,PAYLOAD,2023-01-15 09:31:44,15.08840517,0.00022,53.2156,58.5085,41.2491,318.8667,0.0015030999999999,0.00023715,0.0,0 STARLINK-3253,1 51136U 22005AJ  23015.39704631  .00023715  00000-0  15031-2 0  9999,2 51136  53.2156  58.5085 0002200  41.2491 318.8667 15.08840517 55228,6917.879,95.438,541.266,538.222,0.0
51136.0,STARLINK-3253,PAYLOAD,2023-01-16 09:22:30,15.08885792,0.0002197,53.2155,54.0458,40.6889,319.4266,0.0020485,0.00032506,0.0,0 STARLINK-3253,1 51136U 22005AJ  23016.39063574  .00032506  00000-0  20485-2 0  9991,2 51136  53.2155  54.0458 0002197  40.6889 319.4266 15.08885792 56509,6917.74,95.435,541.125,538.086,0.0
51136.0,STARLINK-3253,PAYLOAD,2023-01-16 10:57:53,15.08894417,0.0002299,53.2168,53.7491,41.4255,318.6911,0.0020335,0.00032273,0.0,0 STARLINK-3253,1 51136U 22005AJ  23016.45687299  .00032273  00000-0  20335-2 0  9999,2 51136  53.2168  53.7491 0002299  41.4255 318.6911 15.08894417 55382,6917.714,95.434,541.169,537.989,0.0
51136.0,STARLINK-3253,PAYLOAD,2023-01-16 18:54:50,15.08845378,0.0002833999999999,53.2161,52.2616,66.2853,293.8437,0.00036853,5.583e-05,0.0,0 STARLINK-3253,1 51136U 22005AJ  23016.78807886  .00005583  00000-0  36853-3 0  9998,2 51136  53.2161  52.2616 0002834  66.2853 293.8437 15.08845378 56562,6917.8640000000005,95.437,541.689,537.768,0.0
51136.0,STARLINK-3253,PAYLOAD,2023-01-17 02:51:46,15.08817359,0.0001795,53.2148,50.7763,58.6477,301.4691,-0.00087656,-0.00014203,0.0,0 STARLINK-3253,1 51136U 22005AJ  23017.11928410 -.00014203  00000-0 -87656-3 0  9991,2 51136  53.2148  50.7763 0001795  58.6477 301.4691 15.08817359 56617,6917.95,95.439,541.056,538.573,0.0
51136.0,STARLINK-3253,PAYLOAD,2023-01-17 06:02:32,15.08816335,0.0001792,53.2148,50.1817,69.3879,290.7305,-0.00065451,-0.00010683,0.0,0 STARLINK-3253,1 51136U 22005AJ  23017.25176606 -.00010683  00000-0 -65451-3 0  9995,2 51136  53.2148  50.1817 0001792  69.3879 290.7305 15.08816335 55505,6917.953,95.439,541.057,538.578,0.0
51136.0,STARLINK-3253,PAYLOAD,2023-01-17 18:45:38,15.08829372,0.0001876999999999,53.2152,47.8031,72.4671,287.6526,0.0010176999999999,0.00015941,0.0,0 STARLINK-3253,1 51136U 22005AJ  23017.78169515  .00015941  00000-0  10177-2 0  9998,2 51136  53.2152  47.8031 0001877  72.4671 287.6526 15.08829372 56719,6917.9130000000005,95.438,541.076,538.479,0.0
51136.0,STARLINK-3253,PAYLOAD,2023-01-18 07:28:43,15.08873209,0.0001873,53.2152,45.4246,72.844,287.2757,0.0024236,0.0003853,0.0,0 STARLINK-3253,1 51136U 22005AJ  23018.31161177  .00038530  00000-0  24236-2 0  9994,2 51136  53.2152  45.4246 0001873  72.8440 287.2757 15.08873209 56793,6917.779,95.435,540.94,538.3480000000001,0.0
51136.0,STARLINK-3253,PAYLOAD,2023-01-18 10:39:29,15.08882282,0.000184,53.215,44.8293,71.6207,288.4985,0.002433,0.00038691,0.0,0 STARLINK-3253,1 51136U 22005AJ  23018.44408837  .00038691  00000-0  24330-2 0  9998,2 51136  53.2150  44.8293 0001840  71.6207 288.4985 15.08882282 55682,6917.751,95.435,540.889,538.3430000000001,0.0
51136.0,STARLINK-3253,PAYLOAD,2023-01-18 18:36:24,15.08864451,0.0001588,53.2153,43.3424,75.6231,284.4937,0.00096436,0.00015103,0.0,0 STARLINK-3253,1 51136U 22005AJ  23018.77528673  .00015103  00000-0  96436-3 0  9995,2 51136  53.2153  43.3424 0001588  75.6231 284.4937 15.08864451 56867,6917.806,95.436,540.769,538.572,0.0
51136.0,STARLINK-3253,PAYLOAD,2023-01-19 10:30:16,15.08853365,0.0001439,53.2136,40.3684,77.3997,282.7156,0.001983,0.00031424,0.0,0 STARLINK-3253,1 51136U 22005AJ  23019.43768842  .00031424  00000-0  19830-2 0  9999,2 51136  53.2136  40.3684 0001439  77.3997 282.7156 15.08853365 56963,6917.84,95.437,540.7,538.7090000000001,0.0
51136.0,STARLINK-3253,PAYLOAD,2023-01-19 18:27:12,15.08855139,0.0001371,53.2142,38.8806,85.7254,274.3895,0.0015003,0.0002368,0.0,0 STARLINK-3253,1 51136U 22005AJ  23019.76888892  .00023680  00000-0  15003-2 0  9996,2 51136  53.2142  38.8806 0001371  85.7254 274.3895 15.08855139 57017,6917.834,95.437,540.648,538.751,0.0
